[{"OBJECT_NAME":"STARLINK-36261","OBJECT_ID":"2025-299D","EPOCH":"2026-03-09T22:00:01.999584","MEAN_MOTION":15.32372839,"ECCENTRICITY":0.00013283,"INCLINATION":43.0007,"RA_OF_ASC_NODE":167.8162,"ARG_OF_PERICENTER":279.5019,"MEAN_ANOMALY":305.2641,"EPHEMERIS_TYPE":0,"CLASSIFICATION_TYPE":"U","NORAD_CAT_ID":67105,"ELEMENT_SET_NO":999,"REV_AT_EPOCH":590,"BSTAR":-0.069612872,"MEAN_MOTION_DOT":-0.02009732,"MEAN_MOTION_DDOT":0},{"OBJECT_NAME":"CZ-6A DEB","OBJECT_ID":"2022-151ABN","EPOCH":"2026-03-09T19:31:34.351392","MEAN_MOTION":14.91930226,"ECCENTRICITY":0.0114204,"INCLINATION":98.6988,"RA_OF_ASC_NODE":184.3801,"ARG_OF_PERICENTER":80.6585,"MEAN_ANOMALY":280.7523,"EPHEMERIS_TYPE":0,"CLASSIFICATION_TYPE":"U","NORAD_CAT_ID":56246,"ELEMENT_SET_NO":999,"REV_AT_EPOCH":15979,"BSTAR":0.001440011,"MEAN_MOTION_DOT":0.00016487,"MEAN_MOTION_DDOT":0}]
